STARLINK-31578          
1 59321U 24057B   26067.64001234  .00000396  00000+0  23923-4 0  9999
2 59321  42.9986 192.5598 0000943 263.4920  96.5824 15.27576516109684
TEVEL2-3                
1 63218U 25052J   26068.64540225  .00020365  00000+0  69446-3 0  9991
2 63218  97.3994 324.7775 0004761 105.7353 254.4413 15.30377031 54855
